{
  "norad_id": 54692,
  "name": "JILIN-1 GAOFEN 03D47",
  "history": [
    {
      "epoch": "2026-03-28T21:34:00.595200",
      "apogee_km": 475.1327225792156,
      "perigee_km": 463.60179930396134,
      "latitude_deg": 74.99654383572117,
      "longitude_deg": 95.46732800011523,
      "semi_major_axis_km": 6847.504260941589,
      "eccentricity": 0.00084198,
      "inclination_deg": 97.6855,
      "raan_deg": 254.3055,
      "arg_perigee_deg": 51.4821,
      "mean_anomaly_deg": 308.7174,
      "mean_motion_rev_day": 15.32160618
    },
    {
      "epoch": "2026-03-29T05:24:14.015808",
      "apogee_km": 475.08699256057025,
      "perigee_km": 463.57229265436126,
      "latitude_deg": 71.63332261615223,
      "longitude_deg": 126.81557312002406,
      "semi_major_axis_km": 6847.4666426074655,
      "eccentricity": 0.0008408,
      "inclination_deg": 97.6854,
      "raan_deg": 254.6444,
      "arg_perigee_deg": 50.4606,
      "mean_anomaly_deg": 309.7376,
      "mean_motion_rev_day": 15.32173244
    }
  ]
}